ONEWEB-0400             
1 50480U 21132M   26197.37294965  .00000078  00000+0  16483-3 0  9995
2 50480  87.9199 329.6416 0002049  96.7758 263.3608 13.18685067225451
ONEWEB-0401             
1 50481U 21132N   26197.79786615  .00000010  00000+0 -70522-5 0  9993
2 50481  87.9201 329.5550 0001783 105.3825 254.7505 13.18686004225519
ONEWEB-0402             
1 50482U 21132P   26197.60900522  .00000100  00000+0  22141-3 0  9990
2 50482  87.9198 329.5810 0001622 111.2681 248.8624 13.18688263225517
ONEWEB-0403             
1 50483U 21132Q   26197.78606281  .00000022  00000+0  22021-4 0  9996
2 50483  87.9198 329.5704 0001827  94.0204 266.1137 13.18686382225495
ONEWEB-0404             
1 50484U 21132R   26197.55317324  .00000475  00000+0  13054-2 0  9995
2 50484  87.8887  15.2195 0001817  80.9875 279.1459 13.11417469219541
ONEWEB-0405             
1 50485U 21132S   26197.79955014 -.00000003  00000+0 -41341-4 0  9997
2 50485  87.9202 329.5532 0002366  96.1307 264.0094 13.18684383225890
ONEWEB-0406             
1 50486U 21132T   26197.79111529 -.00000007  00000+0 -49720-4 0  9996
2 50486  87.9194 329.5692 0001722  81.9801 278.1526 13.18686395225525
ONEWEB-0407             
1 50487U 21132U   26197.40497581 -.00000144  00000+0 -39773-3 0  9998
2 50487  87.9199 329.6394 0001999 104.1394 255.9961 13.18686939225410
ONEWEB-0409             
1 50488U 21132V   26197.55148089  .00000336  00000+0  91231-3 0  9999
2 50488  87.8891  15.2093 0001910  82.4001 277.7344 13.11418049219439
ONEWEB-0412             
1 50489U 21132W   26197.39318709  .00000065  00000+0  13300-3 0  9990
2 50489  87.9195 329.6493 0001678 105.5391 254.5927 13.18686651225502
ONEWEB-0413             
1 50490U 21132X   26197.39824141  .00000040  00000+0  69471-4 0  9998
2 50490  87.9187 329.6447 0001839 107.5111 252.6222 13.18687645225449
ONEWEB-0414             
1 50491U 21132Y   26197.38306843  .00000080  00000+0  17126-3 0  9995
2 50491  87.9198 329.6324 0001717  99.0491 261.0835 13.18687518225473
ONEWEB-0417             
1 50492U 21132Z   26197.61912552  .00000069  00000+0  14177-3 0  9992
2 50492  87.9192 329.6025 0001865  92.8535 267.2811 13.18687239225483
ONEWEB-0418             
1 50493U 21132AA  26197.40147808  .00000051  00000+0  96226-4 0  9991
2 50493  87.9194 329.6472 0001888  90.2250 269.9099 13.18685717225513
ONEWEB-0419             
1 50494U 21132AB  26197.42052199 -.00000003  00000+0 -40602-4 0  9998
2 50494  87.9197 329.6443 0002088  92.7474 267.3898 13.18665740225437
ONEWEB-0420             
1 50495U 21132AC  26197.38474389  .00000050  00000+0  93520-4 0  9990
2 50495  87.9190 329.6513 0002018 103.4927 256.6430 13.18684621225426
ONEWEB-0421             
1 50496U 21132AD  26197.37802302  .00000024  00000+0  27850-4 0  9994
2 50496  87.9192 329.6510 0001532 102.1459 257.9845 13.18686334225463
ONEWEB-0424             
1 50497U 21132AE  26197.79449227  .00000013  00000+0  14041-6 0  9992
2 50497  87.9198 329.5683 0002209  92.7347 267.4038 13.18686393225546
ONEWEB-0426             
1 50498U 21132AF  26197.37380089  .00000054  00000+0  10332-3 0  9998
2 50498  87.9199 329.6424 0001330  83.6564 276.4720 13.18686417225439
ONEWEB-0427             
1 50499U 21132AG  26197.79280751  .00000018  00000+0  12142-4 0  9992
2 50499  87.9200 329.5486 0001818  91.7854 268.3486 13.18686090225518
ONEWEB-0429             
1 50500U 21132AH  26197.39992087  .00000082  00000+0  17544-3 0  9994
2 50500  87.9190 329.6490 0001948 102.0611 258.0740 13.18687812225439
ONEWEB-0430             
1 50501U 21132AJ  26197.76749764 -.00000002  00000+0 -37549-4 0  9990
2 50501  87.9191 329.5742 0002110 103.1729 256.9638 13.18688323225525
ONEWEB-0432             
1 50502U 21132AK  26197.59876441  .00000118  00000+0  26687-3 0  9991
2 50502  87.9197 329.5945 0002348  96.9614 263.1785 13.18687488225458
ONEWEB-0440             
1 50503U 21132AL  26197.40835691  .00000054  00000+0  10315-3 0  9994
2 50503  87.9198 329.6439 0001737 107.3565 252.7757 13.18687106225429
ONEWEB-0450             
1 50504U 21132AM  26197.62938345  .00000067  00000+0  13651-3 0  9999
2 50504  87.9189 329.6021 0002024 103.1890 256.9468 13.18686768225486
ONEWEB-0410             
1 51622U 22012A   26197.52863154 -.00000010  00000+0 -58016-4 0  9998
2 51622  87.9159   0.0224 0001653  49.8083 310.3194 13.17650022217561
ONEWEB-0411             
1 51623U 22012B   26197.48732352 -.00000613  00000+0 -17925-2 0  9990
2 51623  87.8823  30.4292 0002324  95.5296 264.6096 13.10375331213121
ONEWEB-0415             
1 51624U 22012C   26197.56028231 -.00000834  00000+0 -24269-2 0  9998
2 51624  87.8818  30.4123 0002133  87.2822 272.8550 13.10372881213134
ONEWEB-0416             
1 51625U 22012D   26197.57216916 -.00000497  00000+0 -14593-2 0  9993
2 51625  87.8815  30.4269 0002184  84.0956 276.0420 13.10376647213172
ONEWEB-0422             
1 51626U 22012E   26197.46281933 -.00000156  00000+0 -43459-3 0  9999
2 51626  87.9156   0.0361 0001945 113.6251 246.5085 13.17649684217667
ONEWEB-0423             
1 51627U 22012F   26197.45607564  .00000034  00000+0  55339-4 0  9995
2 51627  87.9148   0.0409 0001750  89.2283 270.9049 13.17648844217555
