OBJECT_NAME,OBJECT_ID,EPOCH,MEAN_MOTION,ECCENTRICITY,INCLINATION,RA_OF_ASC_NODE,ARG_OF_PERICENTER,MEAN_ANOMALY,EPHEMERIS_TYPE,CLASSIFICATION_TYPE,NORAD_CAT_ID,ELEMENT_SET_NO,REV_AT_EPOCH,BSTAR,MEAN_MOTION_DOT,MEAN_MOTION_DDOT
ONEWEB-0400,2021-132M,2026-07-16T08:57:02.849760,13.18685067,.0002049,87.9199,329.6416,96.7758,263.3608,0,U,50480,999,22545,.16483E-3,.78E-6,0
ONEWEB-0401,2021-132N,2026-07-16T19:08:55.635360,13.18686004,.0001783,87.9201,329.5550,105.3825,254.7505,0,U,50481,999,22551,-.70522E-5,.1E-6,0
ONEWEB-0402,2021-132P,2026-07-16T14:36:58.051008,13.18688263,.0001622,87.9198,329.5810,111.2681,248.8624,0,U,50482,999,22551,.22141E-3,.1E-5,0
ONEWEB-0403,2021-132Q,2026-07-16T18:51:55.826784,13.18686382,.0001827,87.9198,329.5704,94.0204,266.1137,0,U,50483,999,22549,.22021E-4,.22E-6,0
ONEWEB-0404,2021-132R,2026-07-16T13:16:34.167936,13.11417469,.0001817,87.8887,15.2195,80.9875,279.1459,0,U,50484,999,21954,.13054E-2,.475E-5,0
ONEWEB-0405,2021-132S,2026-07-16T19:11:21.132096,13.18684383,.0002366,87.9202,329.5532,96.1307,264.0094,0,U,50485,999,22589,-.41341E-4,-.3E-7,0
ONEWEB-0406,2021-132T,2026-07-16T18:59:12.361056,13.18686395,.0001722,87.9194,329.5692,81.9801,278.1526,0,U,50486,999,22552,-.4972E-4,-.7E-7,0
ONEWEB-0407,2021-132U,2026-07-16T09:43:09.909984,13.18686939,.0001999,87.9199,329.6394,104.1394,255.9961,0,U,50487,999,22541,-.39773E-3,-.144E-5,0
ONEWEB-0409,2021-132V,2026-07-16T13:14:07.948896,13.11418049,.000191,87.8891,15.2093,82.4001,277.7344,0,U,50488,999,21943,.91231E-3,.336E-5,0
ONEWEB-0412,2021-132W,2026-07-16T09:26:11.364576,13.18686651,.0001678,87.9195,329.6493,105.5391,254.5927,0,U,50489,999,22550,.133E-3,.65E-6,0
ONEWEB-0413,2021-132X,2026-07-16T09:33:28.057824,13.18687645,.0001839,87.9187,329.6447,107.5111,252.6222,0,U,50490,999,22544,.69471E-4,.4E-6,0
ONEWEB-0414,2021-132Y,2026-07-16T09:11:37.112352,13.18687518,.0001717,87.9198,329.6324,99.0491,261.0835,0,U,50491,999,22547,.17126E-3,.8E-6,0
ONEWEB-0417,2021-132Z,2026-07-16T14:51:32.444928,13.18687239,.0001865,87.9192,329.6025,92.8535,267.2811,0,U,50492,999,22548,.14177E-3,.69E-6,0
ONEWEB-0418,2021-132AA,2026-07-16T09:38:07.706112,13.18685717,.0001888,87.9194,329.6472,90.2250,269.9099,0,U,50493,999,22551,.96226E-4,.51E-6,0
ONEWEB-0419,2021-132AB,2026-07-16T10:05:33.099936,13.18665740,.0002088,87.9197,329.6443,92.7474,267.3898,0,U,50494,999,22543,-.40602E-4,-.3E-7,0
ONEWEB-0420,2021-132AC,2026-07-16T09:14:01.872096,13.18684621,.0002018,87.9190,329.6513,103.4927,256.6430,0,U,50495,999,22542,.9352E-4,.5E-6,0
ONEWEB-0421,2021-132AD,2026-07-16T09:04:21.188928,13.18686334,.0001532,87.9192,329.6510,102.1459,257.9845,0,U,50496,999,22546,.2785E-4,.24E-6,0
ONEWEB-0424,2021-132AE,2026-07-16T19:04:04.132128,13.18686393,.0002209,87.9198,329.5683,92.7347,267.4038,0,U,50497,999,22554,.14041E-6,.13E-6,0
ONEWEB-0426,2021-132AF,2026-07-16T08:58:16.396896,13.18686417,.000133,87.9199,329.6424,83.6564,276.4720,0,U,50498,999,22543,.10332E-3,.54E-6,0
ONEWEB-0427,2021-132AG,2026-07-16T19:01:38.568864,13.18686090,.0001818,87.9200,329.5486,91.7854,268.3486,0,U,50499,999,22551,.12142E-4,.18E-6,0
ONEWEB-0429,2021-132AH,2026-07-16T09:35:53.163168,13.18687812,.0001948,87.9190,329.6490,102.0611,258.0740,0,U,50500,999,22543,.17544E-3,.82E-6,0
ONEWEB-0430,2021-132AJ,2026-07-16T18:25:11.796096,13.18688323,.000211,87.9191,329.5742,103.1729,256.9638,0,U,50501,999,22552,-.37549E-4,-.2E-7,0
ONEWEB-0432,2021-132AK,2026-07-16T14:22:13.245024,13.18687488,.0002348,87.9197,329.5945,96.9614,263.1785,0,U,50502,999,22545,.26687E-3,.118E-5,0
ONEWEB-0440,2021-132AL,2026-07-16T09:48:02.037024,13.18687106,.0001737,87.9198,329.6439,107.3565,252.7757,0,U,50503,999,22542,.10315E-3,.54E-6,0
ONEWEB-0450,2021-132AM,2026-07-16T15:06:18.730080,13.18686768,.0002024,87.9189,329.6021,103.1890,256.9468,0,U,50504,999,22548,.13651E-3,.67E-6,0
ONEWEB-0410,2022-012A,2026-07-16T12:41:13.765056,13.17650022,.0001653,87.9159,0.0224,49.8083,310.3194,0,U,51622,999,21756,-.58016E-4,-.1E-6,0
ONEWEB-0411,2022-012B,2026-07-16T11:41:44.752128,13.10375331,.0002324,87.8823,30.4292,95.5296,264.6096,0,U,51623,999,21312,-.17925E-2,-.613E-5,0
ONEWEB-0415,2022-012C,2026-07-16T13:26:48.391584,13.10372881,.0002133,87.8818,30.4123,87.2822,272.8550,0,U,51624,999,21313,-.24269E-2,-.834E-5,0
ONEWEB-0416,2022-012D,2026-07-16T13:43:55.415424,13.10376647,.0002184,87.8815,30.4269,84.0956,276.0420,0,U,51625,999,21317,-.14593E-2,-.497E-5,0
ONEWEB-0422,2022-012E,2026-07-16T11:06:27.590112,13.17649684,.0001945,87.9156,0.0361,113.6251,246.5085,0,U,51626,999,21766,-.43459E-3,-.156E-5,0
ONEWEB-0423,2022-012F,2026-07-16T10:56:44.935296,13.17648844,.000175,87.9148,0.0409,89.2283,270.9049,0,U,51627,999,21755,.55339E-4,.34E-6,0
